STARLINK-31219          
1 58866C 24019P   26112.22479167  .00051169  00000+0  18543-2 0  1120
2 58866  43.0038   2.7608 0001727 281.3395  93.8731 15.27534886    15
STARLINK-31198          
1 58867C 24019Q   26112.20604167  .00038173  00000+0  13834-2 0  1127
2 58867  43.0027   2.9669 0001591 266.6135 315.8812 15.27540401    17
STARLINK-31196          
1 58868C 24019R   26112.23034722  .00050439  00000+0  18270-2 0  1123
2 58868  43.0031   3.3671 0001510 267.6914 229.3128 15.27552594    13
STARLINK-31203          
1 58869C 24019S   26112.25187500  .00032589  00000+0  11809-2 0  1126
2 58869  43.0002 359.2804 0001490 261.9669 196.0543 15.27546368    17
STARLINK-31201          
1 58870C 24019T   26112.20534722  .00057584  00000+0  20875-2 0  1120
2 58870  43.0039   2.7688 0001539 286.7169  23.9113 15.27521712    10
STARLINK-31214          
1 58871C 24019U   26112.25534722  .00038106  00000+0  13810-2 0  1126
2 58871  43.0035   2.6402 0001658 282.1641 233.0043 15.27540845    11
STARLINK-31215          
1 58872C 24019V   26112.20743056  .00058920  00000+0  21354-2 0  1122
2 58872  43.0036   2.9592 0001764 282.3736 314.8136 15.27528138    13
STARLINK-31177          
1 58873C 24019W   26112.26506944  .00021888  00000+0  79312-3 0  1123
2 58873  43.0038   2.5600 0001710 280.0190 302.7968 15.27553255    19
STARLINK-30945          
1 58874C 24019X   26112.24701389  .00031095  00000+0  11269-2 0  1129
2 58874  43.0022   3.0931 0001378 264.9596  34.5402 15.27545624    11
STARLINK-31212          
1 58875C 24019Y   26112.24076389  .00044362  00000+0  16079-2 0  1120
2 58875  43.0039   2.6183 0001634 282.7942 201.5953 15.27533885    15
STARLINK-31306          
1 58876C 24020A   26112.27270833 -.00027212  00000+0 -91665-3 0  1128
2 58876  53.1571 119.7431 0001244  89.3778  41.1572 15.30222946    12
STARLINK-31326          
1 58877C 24020B   26112.20951389 -.00065087  00000+0 -21975-2 0  1122
2 58877  53.1578 120.6367 0001336  81.8579 112.1620 15.30167661    12
STARLINK-31300          
1 58878C 24020C   26112.22548611 -.00020921  00000+0 -70532-3 0  1127
2 58878  53.1574 119.9958 0001683  91.9727 120.8931 15.30191725    17
STARLINK-31296          
1 58879C 24020D   26112.26298611  .00030408  00000+0  10255-2 0  1128
2 58879  53.1580  94.2566 0001565  90.0059 323.9432 15.30154505    19
STARLINK-31328          
1 58880C 24020E   26112.21368056 -.00041229  00000+0 -13897-2 0  1126
2 58880  53.1593 105.0440 0001417  80.4785  67.5477 15.30209534    15
STARLINK-31260          
1 58881C 24020F   26112.27062500 -.00022010  00000+0 -74199-3 0  1128
2 58881  53.1579 119.8659 0001478  86.8609 334.0843 15.30194243    16
STARLINK-31323          
1 58882C 24020G   26112.24354167 -.00020202  00000+0 -68103-3 0  1128
2 58882  53.1584 120.0266 0001322  80.6528 173.5674 15.30194648    18
STARLINK-31209          
1 58883C 24020H   26112.22548611 -.00025622  00000+0 -86374-3 0  1127
2 58883  53.1588 120.1480 0001320  80.9722  56.2715 15.30197270    16
STARLINK-31315          
1 58884C 24020J   26112.20118056 -.00017960  00000+0 -60499-3 0  1128
2 58884  53.1578  94.3623 0001475  89.2482  13.2258 15.30216977    14
STARLINK-31318          
1 58885C 24020K   26112.20812500 -.00020659  00000+0 -69664-3 0  1126
2 58885  53.1583 120.6009 0002049  72.8610 130.8801 15.30183736    17
STARLINK-31320          
1 58886C 24020L   26112.25673611 -.00017690  00000+0 -59683-3 0  1121
2 58886  53.1587 120.0328 0001151  94.8026 197.3257 15.30166997    11
STARLINK-31321          
1 58887C 24020M   26112.20743056 -.00029641  00000+0 -99910-3 0  1124
2 58887  53.1592 120.2960 0001324  85.3128 277.5174 15.30203215    16
STARLINK-31007          
1 58889C 24020P   26112.22548611 -.00029003  00000+0 -97770-3 0  1122
2 58889  53.1591 120.2456 0001269  60.7866  24.1168 15.30200059    13
STARLINK-31230          
1 58890C 24020Q   26112.20673611 -.00029137  00000+0 -98221-3 0  1121
2 58890  53.1591 118.1336 0001327  83.6517 307.3280 15.30200359    14
STARLINK-31245          
1 58891C 24020R   26112.21506944 -.00005938  00000+0 -20017-3 0  1128
2 58891  53.1590  79.0974 0001322  84.8529  59.8255 15.30188129    19
STARLINK-31255          
1 58893C 24020T   26112.26923611 -.00019731  00000+0 -66511-3 0  1124
2 58893  53.1592 120.0753 0001329  79.7898 228.8061 15.30196799    19
STARLINK-31243          
1 58894C 24020U   26112.23520833 -.00030881  00000+0 -10409-2 0  1124
2 58894  53.1595 120.2667 0001325  76.9216  26.6698 15.30204174    15
STARLINK-31218          
1 58895C 24020V   26112.25465278 -.00016853  00000+0 -56841-3 0  1122
2 58895  53.1595 120.2100 0001344  87.8215 105.5497 15.30177759    11
STARLINK-31190          
1 58897C 24020X   26112.24840278 -.00035312  00000+0 -11902-2 0  1129
2 58897  53.1591 120.3191 0001292  84.1277  34.0245 15.30208118    11
STARLINK-31317          
1 58931C 24027A   26112.23451389 -.00018436  00000+0 -62150-3 0  1125
2 58931  53.1572 107.2507 0001323  86.4016  28.2332 15.30192847    18
STARLINK-31378          
1 58932C 24027B   26112.27201389 -.00008934  00000+0 -30117-3 0  1123
2 58932  53.1575 107.1100 0001512  78.0861 225.7917 15.30189530    13
STARLINK-31350          
1 58933C 24027C   26112.19840278 -.00024563  00000+0 -82796-3 0  1127
2 58933  53.1572 107.3477 0001234  85.4829 225.0111 15.30199377    16
STARLINK-31337          
1 58934C 24027D   26112.26784722 -.00010059  00000+0 -33910-3 0  1126
2 58934  53.1576 106.9913 0001296  83.2163 267.4945 15.30188551    13
STARLINK-31362          
1 58935C 24027E   26112.24909722 -.00036201  00000+0 -12203-2 0  1122
2 58935  53.1598 107.5935 0001406  84.9278 260.6960 15.30205369    16
STARLINK-31383          
1 58936C 24027F   26112.27062500 -.00065079  00000+0 -21933-2 0  1125
2 58936  53.1598 107.4817 0000767  91.9529  18.1371 15.30225679    19
STARLINK-31390          
1 58937C 24027G   26112.27131944 -.00012383  00000+0 -41738-3 0  1121
2 58937  53.1600 107.4323 0001210  75.9917  61.1937 15.30194233    10
STARLINK-31377          
1 58938C 24027H   26112.24562500 -.00016103  00000+0 -54282-3 0  1127
2 58938  53.1597 107.5857 0001337  84.9589 253.1541 15.30194253    10
STARLINK-31372          
1 58939C 24027J   26112.22756944 -.00023788  00000+0 -80178-3 0  1123
2 58939  53.1597 107.6004 0001322  76.6422 196.8522 15.30202145    16
STARLINK-31371          
1 58940C 24027K   26112.24354167 -.00025125  00000+0 -84688-3 0  1125
2 58940  53.1596 107.5147 0001383  83.2885 284.0586 15.30200834    11
STARLINK-31345          
1 58941C 24027L   26112.25604167 -.00009708  00000+0 -32723-3 0  1127
2 58941  53.1573 107.0689 0001254  81.2850 192.7247 15.30192182    15
STARLINK-31354          
1 58942C 24027M   26112.24631944 -.00018068  00000+0 -60948-3 0  1129
2 58942  53.1595 107.4781 0001394  86.7185 307.6344 15.30172895    17
STARLINK-31346          
1 58943C 24027N   26112.26506944 -.00018040  00000+0 -60812-3 0  1123
2 58943  53.1577 104.9933 0001494  82.2387 197.9061 15.30194199    12
STARLINK-31336          
1 58944C 24027P   26112.21020833 -.00020422  00000+0 -68794-3 0  1121
2 58944  53.1600 107.7363 0001226  83.2058  65.4372 15.30219002    12
STARLINK-31359          
1 58945C 24027Q   26112.25743056  .00014928  00000+0  50327-3 0  1120
2 58945  53.1592  68.8186 0001292  85.2424  71.9261 15.30175717    18
STARLINK-31331          
1 58946C 24027R   26112.19909722 -.00021484  00000+0 -72424-3 0  1127
2 58946  53.1585 107.5610 0001337  82.7280 121.0842 15.30196039    18
STARLINK-31116          
1 58947C 24027S   26112.26854167 -.00007008  00000+0 -23629-3 0  1127
2 58947  53.1588 107.2727 0001307  84.4115 124.7117 15.30182223    16
STARLINK-31311          
1 58948C 24027T   26112.27618056 -.00006126  00000+0 -20651-3 0  1126
2 58948  53.1576 104.9481 0001369  82.8082 252.7670 15.30187508    15
STARLINK-31294          
1 58949C 24027U   26112.21923611 -.00024143  00000+0 -81382-3 0  1124
2 58949  53.1599 107.7496 0001354  84.9360  84.4676 15.30198740    10
STARLINK-31330          
1 58951C 24027W   26112.24423611 -.00016273  00000+0 -54867-3 0  1128
2 58951  53.1589 104.5331 0001184  52.1603  38.1499 15.30186909    16
STARLINK-31293          
1 58952C 24027X   26112.25395833 -.00012206  00000+0 -41150-3 0  1127
2 58952  53.1577 107.2362 0001334  86.1640  94.9316 15.30189022    10
STARLINK-31373          
1 58965C 24031A   26112.17618056 -.00021667  00000+0 -72989-3 0  1127
2 58965  53.1583  94.4042 0001263  78.7240 344.7044 15.30218734    14
STARLINK-31449          
1 58966C 24031B   26112.24145833 -.00049422  00000+0 -16657-2 0  1122
2 58966  53.1586  94.0783 0001764  80.8562 354.1047 15.30216189    13
STARLINK-31314          
1 58967C 24031C   26112.22062500 -.00008613  00000+0 -29033-3 0  1120
2 58967  53.1578  94.2432 0001321  82.5162 202.7384 15.30190285    12
STARLINK-31356          
1 58968C 24031D   26112.24354167  .00038034  00000+0  12820-2 0  1129
2 58968  53.1610  66.5364 0001096  81.8981 187.6149 15.30169566    14
STARLINK-31335          
1 58969C 24031E   26112.27131944  .00008892  00000+0  29992-3 0  1127
2 58969  53.1606  91.5418 0001304  81.1416 295.1757 15.30163347    17
STARLINK-31368          
1 58970C 24031F   26112.22131944 -.00015887  00000+0 -53551-3 0  1126
2 58970  53.1579  94.2355 0001261  85.1318 209.7509 15.30195778    14
STARLINK-31333          
1 58971C 24031G   26112.25534722  .00017258  00000+0  58210-3 0  1120
2 58971  53.1583  81.7966 0001301  87.0931 136.6744 15.30158876    13
STARLINK-31351          
1 58972C 24031H   26112.25673611 -.00005139  00000+0 -17325-3 0  1121
2 58972  53.1579  94.2569 0001438  85.5528 305.6697 15.30186721    18
STARLINK-31365          
1 58973C 24031J   26112.20187500 -.00021166  00000+0 -71354-3 0  1124
2 58973  53.1585  94.5806 0002585  82.9812 330.9560 15.30191831    12
